[{"OBJECT_NAME":"STARLINK-5449","OBJECT_ID":"2022-175Y","EPOCH":"2026-03-09T21:45:59.559840","MEAN_MOTION":15.08847038,"ECCENTRICITY":0.00015732,"INCLINATION":53.2193,"RA_OF_ASC_NODE":28.0415,"ARG_OF_PERICENTER":112.9614,"MEAN_ANOMALY":247.1544,"EPHEMERIS_TYPE":0,"CLASSIFICATION_TYPE":"U","NORAD_CAT_ID":54780,"ELEMENT_SET_NO":999,"REV_AT_EPOCH":18016,"BSTAR":0.00014069673,"MEAN_MOTION_DOT":1.952e-5,"MEAN_MOTION_DDOT":0},{"OBJECT_NAME":"NANOFF B","OBJECT_ID":"2023-185S","EPOCH":"2026-03-09T23:34:31.291104","MEAN_MOTION":15.11549361,"ECCENTRICITY":0.00109129,"INCLINATION":97.5361,"RA_OF_ASC_NODE":137.8575,"ARG_OF_PERICENTER":288.4201,"MEAN_ANOMALY":71.5842,"EPHEMERIS_TYPE":0,"CLASSIFICATION_TYPE":"U","NORAD_CAT_ID":58755,"ELEMENT_SET_NO":999,"REV_AT_EPOCH":11888,"BSTAR":0.00028764283,"MEAN_MOTION_DOT":4.819e-5,"MEAN_MOTION_DDOT":0}]
